SL-3 R/B                
1 13403U 82079B   25341.95217170  .00007717  00000+0  31900-3 0  9991
2 13403  81.1473 301.3036 0026905 114.4291 245.9753 15.23504483363728
SL-14 R/B               
1 13553U 82092B   25341.95928551  .00000813  00000+0  88789-4 0  9992
2 13553  82.5688 227.1822 0018950 244.0839 126.5118 14.86547941315308
SL-3 R/B                
1 13819U 83010B   25341.84463130  .00021396  00000+0  47732-3 0  9994
2 13819  81.1042 114.5929 0017430   8.0678 352.0841 15.43265197343764
SL-3 R/B                
1 14208U 83075B   25341.96664939  .00012900  00000+0  36744-3 0  9993
2 14208  97.6104 338.2899 0022180 192.6152 167.4539 15.35990915316063
COSMOS 1536             
1 14699U 84013A   25341.87699912  .00008113  00000+0  34866-3 0  9993
2 14699  82.5453 198.9868 0013336 244.3756 115.6103 15.22437770258644
SL-14 R/B               
1 14820U 84027B   25341.97624547  .00000870  00000+0  97027-4 0  9998
2 14820  82.5408 331.0237 0016413 278.1368  81.7987 14.85866188234018
SL-8 R/B                
1 15483U 85006B   25341.75246831  .00000513  00000+0  17883-3 0  9999
2 15483  74.0467  70.3103 0018465   3.7990 114.5834 14.37716931140819
SL-12 R/B(2)            
1 15772U 85042D   25341.96310582  .00000277  00000+0  14607-3 0  9996
2 15772  71.1085 281.5107 0037691 268.5295 156.6764 14.21949616101351
SL-14 R/B               
1 15945U 85069B   25341.85429242  .00001116  00000+0  12364-3 0  9990
2 15945  82.5263 111.2955 0019887 133.6921 226.5947 14.86315689159195
SL-16 R/B               
1 16182U 85097B   25341.97904498  .00000040  00000+0  43806-4 0  9990
2 16182  71.0028 333.6261 0006375  18.3930  49.1373 14.16581777 74248
SL-14 R/B               
1 16496U 86006B   25341.98845977  .00001066  00000+0  11125-3 0  9993
2 16496  82.5265 346.0224 0075779 215.7444 143.8689 14.86661935135589
COSMOS 1743             
1 16719U 86034A   25341.94758782  .00032074  00000+0  53547-3 0  9992
2 16719  82.5345 169.5678 0004693 274.1175  85.9540 15.51778831165991
