CCSDS_OMM_VERS = 2.0
CREATION_DATE  = 
ORIGINATOR     = 

OBJECT_NAME    = SL-3 R/B
OBJECT_ID      = 1982-079B
CENTER_NAME    = EARTH
REF_FRAME      = TEME
TIME_SYSTEM    = UTC
MEAN_ELEMENT_THEORY = SGP/SGP4

EPOCH          = 2025-12-07T22:51:07.634880
MEAN_MOTION    = 15.23504483
ECCENTRICITY   = .0026905
INCLINATION    = 81.1473
RA_OF_ASC_NODE = 301.3036
ARG_OF_PERICENTER = 114.4291
MEAN_ANOMALY   = 245.9753

EPHEMERIS_TYPE = 0
CLASSIFICATION_TYPE = U
NORAD_CAT_ID   = 13403
ELEMENT_SET_NO = 999
REV_AT_EPOCH   = 36372
BSTAR          = .31899898E-3
MEAN_MOTION_DOT = .7717E-4
MEAN_MOTION_DDOT = 0

CCSDS_OMM_VERS = 2.0
CREATION_DATE  = 
ORIGINATOR     = 

OBJECT_NAME    = SL-14 R/B
OBJECT_ID      = 1982-092B
CENTER_NAME    = EARTH
REF_FRAME      = TEME
TIME_SYSTEM    = UTC
MEAN_ELEMENT_THEORY = SGP/SGP4

EPOCH          = 2025-12-07T23:01:22.268064
MEAN_MOTION    = 14.86547941
ECCENTRICITY   = .00189501
INCLINATION    = 82.5688
RA_OF_ASC_NODE = 227.1822
ARG_OF_PERICENTER = 244.0839
MEAN_ANOMALY   = 126.5118

EPHEMERIS_TYPE = 0
CLASSIFICATION_TYPE = U
NORAD_CAT_ID   = 13553
ELEMENT_SET_NO = 999
REV_AT_EPOCH   = 31530
BSTAR          = .88789045E-4
MEAN_MOTION_DOT = .813E-5
MEAN_MOTION_DDOT = 0

CCSDS_OMM_VERS = 2.0
CREATION_DATE  = 
ORIGINATOR     = 

OBJECT_NAME    = SL-3 R/B
OBJECT_ID      = 1983-010B
CENTER_NAME    = EARTH
REF_FRAME      = TEME
TIME_SYSTEM    = UTC
MEAN_ELEMENT_THEORY = SGP/SGP4

EPOCH          = 2025-12-07T20:16:16.144320
MEAN_MOTION    = 15.43265197
ECCENTRICITY   = .00174303
INCLINATION    = 81.1042
RA_OF_ASC_NODE = 114.5929
ARG_OF_PERICENTER = 8.0678
MEAN_ANOMALY   = 352.0841

EPHEMERIS_TYPE = 0
CLASSIFICATION_TYPE = U
NORAD_CAT_ID   = 13819
ELEMENT_SET_NO = 999
REV_AT_EPOCH   = 34376
BSTAR          = .47732103E-3
MEAN_MOTION_DOT = .21396E-3
MEAN_MOTION_DDOT = 0

CCSDS_OMM_VERS = 2.0
CREATION_DATE  = 
ORIGINATOR     = 

OBJECT_NAME    = SL-3 R/B
OBJECT_ID      = 1983-075B
CENTER_NAME    = EARTH
REF_FRAME      = TEME
TIME_SYSTEM    = UTC
MEAN_ELEMENT_THEORY = SGP/SGP4

EPOCH          = 2025-12-07T23:11:58.507296
MEAN_MOTION    = 15.35990915
ECCENTRICITY   = .00221806
INCLINATION    = 97.6104
RA_OF_ASC_NODE = 338.2899
ARG_OF_PERICENTER = 192.6152
MEAN_ANOMALY   = 167.4539

EPHEMERIS_TYPE = 0
CLASSIFICATION_TYPE = U
NORAD_CAT_ID   = 14208
ELEMENT_SET_NO = 999
REV_AT_EPOCH   = 31606
BSTAR          = .36744369E-3
MEAN_MOTION_DOT = .129E-3
MEAN_MOTION_DDOT = 0

CCSDS_OMM_VERS = 2.0
CREATION_DATE  = 
ORIGINATOR     = 

OBJECT_NAME    = COSMOS 1536
OBJECT_ID      = 1984-013A
CENTER_NAME    = EARTH
REF_FRAME      = TEME
TIME_SYSTEM    = UTC
MEAN_ELEMENT_THEORY = SGP/SGP4

EPOCH          = 2025-12-07T21:02:52.723968
MEAN_MOTION    = 15.22437770
ECCENTRICITY   = .00133361
INCLINATION    = 82.5453
RA_OF_ASC_NODE = 198.9868
ARG_OF_PERICENTER = 244.3756
MEAN_ANOMALY   = 115.6103

EPHEMERIS_TYPE = 0
CLASSIFICATION_TYPE = U
NORAD_CAT_ID   = 14699
ELEMENT_SET_NO = 999
REV_AT_EPOCH   = 25864
BSTAR          = .34865732E-3
MEAN_MOTION_DOT = .8113E-4
MEAN_MOTION_DDOT = 0

CCSDS_OMM_VERS = 2.0
CREATION_DATE  = 
ORIGINATOR     = 

OBJECT_NAME    = SL-14 R/B
OBJECT_ID      = 1984-027B
CENTER_NAME    = EARTH
REF_FRAME      = TEME
TIME_SYSTEM    = UTC
MEAN_ELEMENT_THEORY = SGP/SGP4

EPOCH          = 2025-12-07T23:25:47.608608
MEAN_MOTION    = 14.85866188
ECCENTRICITY   = .00164132
INCLINATION    = 82.5408
RA_OF_ASC_NODE = 331.0237
ARG_OF_PERICENTER = 278.1368
MEAN_ANOMALY   = 81.7987

EPHEMERIS_TYPE = 0
CLASSIFICATION_TYPE = U
NORAD_CAT_ID   = 14820
ELEMENT_SET_NO = 999
REV_AT_EPOCH   = 23401
BSTAR          = .97027203E-4
MEAN_MOTION_DOT = .87E-5
MEAN_MOTION_DDOT = 0

CCSDS_OMM_VERS = 2.0
CREATION_DATE  = 
ORIGINATOR     = 

OBJECT_NAME    = SL-8 R/B
OBJECT_ID      = 1985-006B
CENTER_NAME    = EARTH
REF_FRAME      = TEME
TIME_SYSTEM    = UTC
MEAN_ELEMENT_THEORY = SGP/SGP4

EPOCH          = 2025-12-07T18:03:33.261984
MEAN_MOTION    = 14.37716931
ECCENTRICITY   = .00184656
INCLINATION    = 74.0467
RA_OF_ASC_NODE = 70.3103
ARG_OF_PERICENTER = 3.7990
MEAN_ANOMALY   = 114.5834

EPHEMERIS_TYPE = 0
CLASSIFICATION_TYPE = U
NORAD_CAT_ID   = 15483
ELEMENT_SET_NO = 999
REV_AT_EPOCH   = 14081
BSTAR          = .1788271E-3
MEAN_MOTION_DOT = .513E-5
MEAN_MOTION_DDOT = 0

CCSDS_OMM_VERS = 2.0
CREATION_DATE  = 
ORIGINATOR     = 

OBJECT_NAME    = SL-12 R/B(2)
OBJECT_ID      = 1985-042D
CENTER_NAME    = EARTH
REF_FRAME      = TEME
TIME_SYSTEM    = UTC
MEAN_ELEMENT_THEORY = SGP/SGP4

EPOCH          = 2025-12-07T23:06:52.342848
MEAN_MOTION    = 14.21949616
ECCENTRICITY   = .00376913
INCLINATION    = 71.1085
RA_OF_ASC_NODE = 281.5107
ARG_OF_PERICENTER = 268.5295
MEAN_ANOMALY   = 156.6764

EPHEMERIS_TYPE = 0
CLASSIFICATION_TYPE = U
NORAD_CAT_ID   = 15772
ELEMENT_SET_NO = 999
REV_AT_EPOCH   = 10135
BSTAR          = .14606993E-3
MEAN_MOTION_DOT = .277E-5
MEAN_MOTION_DDOT = 0

CCSDS_OMM_VERS = 2.0
CREATION_DATE  = 
ORIGINATOR     = 

OBJECT_NAME    = SL-14 R/B
OBJECT_ID      = 1985-069B
CENTER_NAME    = EARTH
REF_FRAME      = TEME
TIME_SYSTEM    = UTC
MEAN_ELEMENT_THEORY = SGP/SGP4

EPOCH          = 2025-12-07T20:30:10.865088
MEAN_MOTION    = 14.86315689
ECCENTRICITY   = .00198878
INCLINATION    = 82.5263
RA_OF_ASC_NODE = 111.2955
ARG_OF_PERICENTER = 133.6921
MEAN_ANOMALY   = 226.5947

EPHEMERIS_TYPE = 0
CLASSIFICATION_TYPE = U
NORAD_CAT_ID   = 15945
ELEMENT_SET_NO = 999
REV_AT_EPOCH   = 15919
BSTAR          = .12363697E-3
MEAN_MOTION_DOT = .1116E-4
MEAN_MOTION_DDOT = 0

CCSDS_OMM_VERS = 2.0
CREATION_DATE  = 
ORIGINATOR     = 

OBJECT_NAME    = SL-16 R/B
OBJECT_ID      = 1985-097B
CENTER_NAME    = EARTH
REF_FRAME      = TEME
TIME_SYSTEM    = UTC
MEAN_ELEMENT_THEORY = SGP/SGP4

EPOCH          = 2025-12-07T23:29:49.486272
MEAN_MOTION    = 14.16581777
ECCENTRICITY   = .00063759
INCLINATION    = 71.0028
RA_OF_ASC_NODE = 333.6261
ARG_OF_PERICENTER = 18.3930
MEAN_ANOMALY   = 49.1373

EPHEMERIS_TYPE = 0
CLASSIFICATION_TYPE = U
NORAD_CAT_ID   = 16182
ELEMENT_SET_NO = 999
REV_AT_EPOCH   = 7424
BSTAR          = .43806441E-4
MEAN_MOTION_DOT = .4E-6
MEAN_MOTION_DDOT = 0

CCSDS_OMM_VERS = 2.0
CREATION_DATE  = 
ORIGINATOR     = 

OBJECT_NAME    = SL-14 R/B
OBJECT_ID      = 1986-006B
CENTER_NAME    = EARTH
REF_FRAME      = TEME
TIME_SYSTEM    = UTC
MEAN_ELEMENT_THEORY = SGP/SGP4

EPOCH          = 2025-12-07T23:43:22.924128
MEAN_MOTION    = 14.86661935
ECCENTRICITY   = .00757792
INCLINATION    = 82.5265
RA_OF_ASC_NODE = 346.0224
ARG_OF_PERICENTER = 215.7444
MEAN_ANOMALY   = 143.8689

EPHEMERIS_TYPE = 0
CLASSIFICATION_TYPE = U
NORAD_CAT_ID   = 16496
ELEMENT_SET_NO = 999
REV_AT_EPOCH   = 13558
BSTAR          = .11124926E-3
MEAN_MOTION_DOT = .1066E-4
MEAN_MOTION_DDOT = 0

CCSDS_OMM_VERS = 2.0
CREATION_DATE  = 
ORIGINATOR     = 

OBJECT_NAME    = COSMOS 1743
OBJECT_ID      = 1986-034A
CENTER_NAME    = EARTH
REF_FRAME      = TEME
TIME_SYSTEM    = UTC
MEAN_ELEMENT_THEORY = SGP/SGP4

EPOCH          = 2025-12-07T22:44:31.587648
MEAN_MOTION    = 15.51778831
ECCENTRICITY   = .0004693
INCLINATION    = 82.5345
RA_OF_ASC_NODE = 169.5678
ARG_OF_PERICENTER = 274.1175
MEAN_ANOMALY   = 85.9540

EPHEMERIS_TYPE = 0
CLASSIFICATION_TYPE = U
NORAD_CAT_ID   = 16719
ELEMENT_SET_NO = 999
REV_AT_EPOCH   = 16599
BSTAR          = .53546594E-3
MEAN_MOTION_DOT = .32074E-3
MEAN_MOTION_DDOT = 0

